{
  "type": "FeatureCollection",
  "features": [
    {
      "type": "Feature",
      "geometry": {
        "type": "Polygon",
        "coordinates": [
          [
            [
              86.55,
              25.45
            ],
            [
              86.67,
              25.45
            ],
            [
              86.67,
              25.6125
            ],
            [
              86.55,
              25.6125
            ],
            [
              86.55,
              25.45
            ]
          ]
        ]
      },
      "properties": {
        "name": "P001",
        "district": "Madhepura",
        "block": "DummyBlock_1",
        "panchayat": "DummyPanchayat_001",
        "data_status": "DUMMY_DEVELOPMENT_ONLY",
        "predicted_rainfall_mm": 13.14,
        "aggregation_method": "Area-weighted grid rainfall",
        "grid_resolution": "4 km x 4 km"
      }
    },
    {
      "type": "Feature",
      "geometry": {
        "type": "Polygon",
        "coordinates": [
          [
            [
              86.67,
              25.45
            ],
            [
              86.79,
              25.45
            ],
            [
              86.79,
              25.6125
            ],
            [
              86.67,
              25.6125
            ],
            [
              86.67,
              25.45
            ]
          ]
        ]
      },
      "properties": {
        "name": "P002",
        "district": "Madhepura",
        "block": "DummyBlock_2",
        "panchayat": "DummyPanchayat_002",
        "data_status": "DUMMY_DEVELOPMENT_ONLY",
        "predicted_rainfall_mm": 12.39,
        "aggregation_method": "Area-weighted grid rainfall",
        "grid_resolution": "4 km x 4 km"
      }
    },
    {
      "type": "Feature",
      "geometry": {
        "type": "Polygon",
        "coordinates": [
          [
            [
              86.79,
              25.45
            ],
            [
              86.91,
              25.45
            ],
            [
              86.91,
              25.6125
            ],
            [
              86.79,
              25.6125
            ],
            [
              86.79,
              25.45
            ]
          ]
        ]
      },
      "properties": {
        "name": "P003",
        "district": "Madhepura",
        "block": "DummyBlock_3",
        "panchayat": "DummyPanchayat_003",
        "data_status": "DUMMY_DEVELOPMENT_ONLY",
        "predicted_rainfall_mm": 11.75,
        "aggregation_method": "Area-weighted grid rainfall",
        "grid_resolution": "4 km x 4 km"
      }
    },
    {
      "type": "Feature",
      "geometry": {
        "type": "Polygon",
        "coordinates": [
          [
            [
              86.91,
              25.45
            ],
            [
              87.03,
              25.45
            ],
            [
              87.03,
              25.6125
            ],
            [
              86.91,
              25.6125
            ],
            [
              86.91,
              25.45
            ]
          ]
        ]
      },
      "properties": {
        "name": "P004",
        "district": "Madhepura",
        "block": "DummyBlock_4",
        "panchayat": "DummyPanchayat_004",
        "data_status": "DUMMY_DEVELOPMENT_ONLY",
        "predicted_rainfall_mm": 12.09,
        "aggregation_method": "Area-weighted grid rainfall",
        "grid_resolution": "4 km x 4 km"
      }
    },
    {
      "type": "Feature",
      "geometry": {
        "type": "Polygon",
        "coordinates": [
          [
            [
              87.03,
              25.45
            ],
            [
              87.15,
              25.45
            ],
            [
              87.15,
              25.6125
            ],
            [
              87.03,
              25.6125
            ],
            [
              87.03,
              25.45
            ]
          ]
        ]
      },
      "properties": {
        "name": "P005",
        "district": "Madhepura",
        "block": "DummyBlock_5",
        "panchayat": "DummyPanchayat_005",
        "data_status": "DUMMY_DEVELOPMENT_ONLY",
        "predicted_rainfall_mm": 11.68,
        "aggregation_method": "Area-weighted grid rainfall",
        "grid_resolution": "4 km x 4 km"
      }
    },
    {
      "type": "Feature",
      "geometry": {
        "type": "Polygon",
        "coordinates": [
          [
            [
              86.55,
              25.6125
            ],
            [
              86.67,
              25.6125
            ],
            [
              86.67,
              25.775
            ],
            [
              86.55,
              25.775
            ],
            [
              86.55,
              25.6125
            ]
          ]
        ]
      },
      "properties": {
        "name": "P006",
        "district": "Madhepura",
        "block": "DummyBlock_1",
        "panchayat": "DummyPanchayat_006",
        "data_status": "DUMMY_DEVELOPMENT_ONLY",
        "predicted_rainfall_mm": 9.31,
        "aggregation_method": "Area-weighted grid rainfall",
        "grid_resolution": "4 km x 4 km"
      }
    },
    {
      "type": "Feature",
      "geometry": {
        "type": "Polygon",
        "coordinates": [
          [
            [
              86.67,
              25.6125
            ],
            [
              86.79,
              25.6125
            ],
            [
              86.79,
              25.775
            ],
            [
              86.67,
              25.775
            ],
            [
              86.67,
              25.6125
            ]
          ]
        ]
      },
      "properties": {
        "name": "P007",
        "district": "Madhepura",
        "block": "DummyBlock_2",
        "panchayat": "DummyPanchayat_007",
        "data_status": "DUMMY_DEVELOPMENT_ONLY",
        "predicted_rainfall_mm": 11.61,
        "aggregation_method": "Area-weighted grid rainfall",
        "grid_resolution": "4 km x 4 km"
      }
    },
    {
      "type": "Feature",
      "geometry": {
        "type": "Polygon",
        "coordinates": [
          [
            [
              86.79,
              25.6125
            ],
            [
              86.91,
              25.6125
            ],
            [
              86.91,
              25.775
            ],
            [
              86.79,
              25.775
            ],
            [
              86.79,
              25.6125
            ]
          ]
        ]
      },
      "properties": {
        "name": "P008",
        "district": "Madhepura",
        "block": "DummyBlock_3",
        "panchayat": "DummyPanchayat_008",
        "data_status": "DUMMY_DEVELOPMENT_ONLY",
        "predicted_rainfall_mm": 9.54,
        "aggregation_method": "Area-weighted grid rainfall",
        "grid_resolution": "4 km x 4 km"
      }
    },
    {
      "type": "Feature",
      "geometry": {
        "type": "Polygon",
        "coordinates": [
          [
            [
              86.91,
              25.6125
            ],
            [
              87.03,
              25.6125
            ],
            [
              87.03,
              25.775
            ],
            [
              86.91,
              25.775
            ],
            [
              86.91,
              25.6125
            ]
          ]
        ]
      },
      "properties": {
        "name": "P009",
        "district": "Madhepura",
        "block": "DummyBlock_4",
        "panchayat": "DummyPanchayat_009",
        "data_status": "DUMMY_DEVELOPMENT_ONLY",
        "predicted_rainfall_mm": 9.7,
        "aggregation_method": "Area-weighted grid rainfall",
        "grid_resolution": "4 km x 4 km"
      }
    },
    {
      "type": "Feature",
      "geometry": {
        "type": "Polygon",
        "coordinates": [
          [
            [
              87.03,
              25.6125
            ],
            [
              87.15,
              25.6125
            ],
            [
              87.15,
              25.775
            ],
            [
              87.03,
              25.775
            ],
            [
              87.03,
              25.6125
            ]
          ]
        ]
      },
      "properties": {
        "name": "P010",
        "district": "Madhepura",
        "block": "DummyBlock_5",
        "panchayat": "DummyPanchayat_010",
        "data_status": "DUMMY_DEVELOPMENT_ONLY",
        "predicted_rainfall_mm": 10.02,
        "aggregation_method": "Area-weighted grid rainfall",
        "grid_resolution": "4 km x 4 km"
      }
    },
    {
      "type": "Feature",
      "geometry": {
        "type": "Polygon",
        "coordinates": [
          [
            [
              86.55,
              25.775
            ],
            [
              86.67,
              25.775
            ],
            [
              86.67,
              25.9375
            ],
            [
              86.55,
              25.9375
            ],
            [
              86.55,
              25.775
            ]
          ]
        ]
      },
      "properties": {
        "name": "P011",
        "district": "Madhepura",
        "block": "DummyBlock_1",
        "panchayat": "DummyPanchayat_011",
        "data_status": "DUMMY_DEVELOPMENT_ONLY",
        "predicted_rainfall_mm": 11.6,
        "aggregation_method": "Area-weighted grid rainfall",
        "grid_resolution": "4 km x 4 km"
      }
    },
    {
      "type": "Feature",
      "geometry": {
        "type": "Polygon",
        "coordinates": [
          [
            [
              86.67,
              25.775
            ],
            [
              86.79,
              25.775
            ],
            [
              86.79,
              25.9375
            ],
            [
              86.67,
              25.9375
            ],
            [
              86.67,
              25.775
            ]
          ]
        ]
      },
      "properties": {
        "name": "P012",
        "district": "Madhepura",
        "block": "DummyBlock_2",
        "panchayat": "DummyPanchayat_012",
        "data_status": "DUMMY_DEVELOPMENT_ONLY",
        "predicted_rainfall_mm": 10.54,
        "aggregation_method": "Area-weighted grid rainfall",
        "grid_resolution": "4 km x 4 km"
      }
    },
    {
      "type": "Feature",
      "geometry": {
        "type": "Polygon",
        "coordinates": [
          [
            [
              86.79,
              25.775
            ],
            [
              86.91,
              25.775
            ],
            [
              86.91,
              25.9375
            ],
            [
              86.79,
              25.9375
            ],
            [
              86.79,
              25.775
            ]
          ]
        ]
      },
      "properties": {
        "name": "P013",
        "district": "Madhepura",
        "block": "DummyBlock_3",
        "panchayat": "DummyPanchayat_013",
        "data_status": "DUMMY_DEVELOPMENT_ONLY",
        "predicted_rainfall_mm": 9.57,
        "aggregation_method": "Area-weighted grid rainfall",
        "grid_resolution": "4 km x 4 km"
      }
    },
    {
      "type": "Feature",
      "geometry": {
        "type": "Polygon",
        "coordinates": [
          [
            [
              86.91,
              25.775
            ],
            [
              87.03,
              25.775
            ],
            [
              87.03,
              25.9375
            ],
            [
              86.91,
              25.9375
            ],
            [
              86.91,
              25.775
            ]
          ]
        ]
      },
      "properties": {
        "name": "P014",
        "district": "Madhepura",
        "block": "DummyBlock_4",
        "panchayat": "DummyPanchayat_014",
        "data_status": "DUMMY_DEVELOPMENT_ONLY",
        "predicted_rainfall_mm": 9.4,
        "aggregation_method": "Area-weighted grid rainfall",
        "grid_resolution": "4 km x 4 km"
      }
    },
    {
      "type": "Feature",
      "geometry": {
        "type": "Polygon",
        "coordinates": [
          [
            [
              87.03,
              25.775
            ],
            [
              87.15,
              25.775
            ],
            [
              87.15,
              25.9375
            ],
            [
              87.03,
              25.9375
            ],
            [
              87.03,
              25.775
            ]
          ]
        ]
      },
      "properties": {
        "name": "P015",
        "district": "Madhepura",
        "block": "DummyBlock_5",
        "panchayat": "DummyPanchayat_015",
        "data_status": "DUMMY_DEVELOPMENT_ONLY",
        "predicted_rainfall_mm": 9.68,
        "aggregation_method": "Area-weighted grid rainfall",
        "grid_resolution": "4 km x 4 km"
      }
    },
    {
      "type": "Feature",
      "geometry": {
        "type": "Polygon",
        "coordinates": [
          [
            [
              86.55,
              25.9375
            ],
            [
              86.67,
              25.9375
            ],
            [
              86.67,
              26.1
            ],
            [
              86.55,
              26.1
            ],
            [
              86.55,
              25.9375
            ]
          ]
        ]
      },
      "properties": {
        "name": "P016",
        "district": "Madhepura",
        "block": "DummyBlock_1",
        "panchayat": "DummyPanchayat_016",
        "data_status": "DUMMY_DEVELOPMENT_ONLY",
        "predicted_rainfall_mm": 14.22,
        "aggregation_method": "Area-weighted grid rainfall",
        "grid_resolution": "4 km x 4 km"
      }
    },
    {
      "type": "Feature",
      "geometry": {
        "type": "Polygon",
        "coordinates": [
          [
            [
              86.67,
              25.9375
            ],
            [
              86.79,
              25.9375
            ],
            [
              86.79,
              26.1
            ],
            [
              86.67,
              26.1
            ],
            [
              86.67,
              25.9375
            ]
          ]
        ]
      },
      "properties": {
        "name": "P017",
        "district": "Madhepura",
        "block": "DummyBlock_2",
        "panchayat": "DummyPanchayat_017",
        "data_status": "DUMMY_DEVELOPMENT_ONLY",
        "predicted_rainfall_mm": 12.52,
        "aggregation_method": "Area-weighted grid rainfall",
        "grid_resolution": "4 km x 4 km"
      }
    },
    {
      "type": "Feature",
      "geometry": {
        "type": "Polygon",
        "coordinates": [
          [
            [
              86.79,
              25.9375
            ],
            [
              86.91,
              25.9375
            ],
            [
              86.91,
              26.1
            ],
            [
              86.79,
              26.1
            ],
            [
              86.79,
              25.9375
            ]
          ]
        ]
      },
      "properties": {
        "name": "P018",
        "district": "Madhepura",
        "block": "DummyBlock_3",
        "panchayat": "DummyPanchayat_018",
        "data_status": "DUMMY_DEVELOPMENT_ONLY",
        "predicted_rainfall_mm": 10.93,
        "aggregation_method": "Area-weighted grid rainfall",
        "grid_resolution": "4 km x 4 km"
      }
    },
    {
      "type": "Feature",
      "geometry": {
        "type": "Polygon",
        "coordinates": [
          [
            [
              86.91,
              25.9375
            ],
            [
              87.03,
              25.9375
            ],
            [
              87.03,
              26.1
            ],
            [
              86.91,
              26.1
            ],
            [
              86.91,
              25.9375
            ]
          ]
        ]
      },
      "properties": {
        "name": "P019",
        "district": "Madhepura",
        "block": "DummyBlock_4",
        "panchayat": "DummyPanchayat_019",
        "data_status": "DUMMY_DEVELOPMENT_ONLY",
        "predicted_rainfall_mm": 9.78,
        "aggregation_method": "Area-weighted grid rainfall",
        "grid_resolution": "4 km x 4 km"
      }
    },
    {
      "type": "Feature",
      "geometry": {
        "type": "Polygon",
        "coordinates": [
          [
            [
              87.03,
              25.9375
            ],
            [
              87.15,
              25.9375
            ],
            [
              87.15,
              26.1
            ],
            [
              87.03,
              26.1
            ],
            [
              87.03,
              25.9375
            ]
          ]
        ]
      },
      "properties": {
        "name": "P020",
        "district": "Madhepura",
        "block": "DummyBlock_5",
        "panchayat": "DummyPanchayat_020",
        "data_status": "DUMMY_DEVELOPMENT_ONLY",
        "predicted_rainfall_mm": 10.62,
        "aggregation_method": "Area-weighted grid rainfall",
        "grid_resolution": "4 km x 4 km"
      }
    }
  ]
}