{
  "type": "FeatureCollection",
  "name": "madhepura_dummy_boundary",
  "features": [
    {
      "type": "Feature",
      "properties": {
        "name": "Madhepura_Dummy",
        "district": "Madhepura",
        "data_status": "DUMMY_DEVELOPMENT_ONLY"
      },
      "geometry": {
        "type": "Polygon",
        "coordinates": [
          [
            [
              86.55,
              25.45
            ],
            [
              86.66,
              25.43
            ],
            [
              86.82,
              25.48
            ],
            [
              87.0,
              25.5
            ],
            [
              87.15,
              25.6
            ],
            [
              87.13,
              25.78
            ],
            [
              87.15,
              25.98
            ],
            [
              87.02,
              26.1
            ],
            [
              86.82,
              26.08
            ],
            [
              86.64,
              26.03
            ],
            [
              86.55,
              25.9
            ],
            [
              86.55,
              25.45
            ]
          ]
        ]
      }
    }
  ]
}